{
    "links": {
        "self": "http://www.neowsapp.com/rest/v1/neo/3443806?api_key=iIulBulltgU6a56xZRHN4H3l9WmuAYTsLGpBGhQ2"
    },
    "id": "3443806",
    "neo_reference_id": "3443806",
    "name": "(2008 YW32)",
    "designation": "2008 YW32",
    "nasa_jpl_url": "http://ssd.jpl.nasa.gov/sbdb.cgi?sstr=3443806",
    "absolute_magnitude_h": 25.2,
    "estimated_diameter": {
        "kilometers": {
            "estimated_diameter_min": 0.0242412481,
            "estimated_diameter_max": 0.0542050786
        },
        "meters": {
            "estimated_diameter_min": 24.2412481101,
            "estimated_diameter_max": 54.2050786336
        },
        "miles": {
            "estimated_diameter_min": 0.0150628086,
            "estimated_diameter_max": 0.0336814639
        },
        "feet": {
            "estimated_diameter_min": 79.5316564495,
            "estimated_diameter_max": 177.8381901842
        }
    },
    "is_potentially_hazardous_asteroid": false,
    "close_approach_data": [
        {
            "close_approach_date": "2008-12-12",
            "close_approach_date_full": "2008-Dec-12 19:06",
            "epoch_date_close_approach": 1229108760000,
            "relative_velocity": {
                "kilometers_per_second": "6.8119042122",
                "kilometers_per_hour": "24522.8551640094",
                "miles_per_hour": "15237.5485323257"
            },
            "miss_distance": {
                "astronomical": "0.0445602854",
                "lunar": "17.3339510206",
                "kilometers": "6666123.782432098",
                "miles": "4142137.2449470324"
            },
            "orbiting_body": "Earth"
        }
    ],
    "orbital_data": {
        "orbit_id": "8",
        "orbit_determination_date": "2017-04-06 09:01:45",
        "first_observation_date": "2008-12-31",
        "last_observation_date": "2009-01-25",
        "data_arc_in_days": 25,
        "observations_used": 36,
        "orbit_uncertainty": "7",
        "minimum_orbit_intersection": ".033549",
        "jupiter_tisserand_invariant": "3.348",
        "epoch_osculation": "2459000.5",
        "eccentricity": ".5609443702005023",
        "semi_major_axis": "2.320040071267111",
        "inclination": ".9857503562143186",
        "ascending_node_longitude": "71.19358439827236",
        "orbital_period": "1290.748579816041",
        "perihelion_distance": "1.018626654650253",
        "perihelion_argument": "2.312068491081355",
        "aphelion_distance": "3.621453487883969",
        "perihelion_time": "2458683.324306341632",
        "mean_anomaly": "88.46281258995151",
        "mean_motion": ".2789079187298488",
        "equinox": "J2000",
        "orbit_class": {
            "orbit_class_type": "AMO",
            "orbit_class_description": "Near-Earth asteroid orbits similar to that of 1221 Amor",
            "orbit_class_range": "1.017 AU < q (perihelion) < 1.3 AU"
        }
    },
    "is_sentry_object": false
}